$$SOE
2460154.500000000, A.D. 2023-Jul-29 00:00:00.0000, -1.074923681139419E+08, -3.210791318478742E+08, -1.141110669332156E+07,
2460161.500000000, A.D. 2023-Aug-05 00:00:00.0000, -9.514980521475433E+07, -3.238549399360372E+08, -1.305125809582415E+07,
2460168.500000000, A.D. 2023-Aug-12 00:00:00.0000, -8.268749284532396E+07, -3.262229222862765E+08, -1.467496935821010E+07,
2460175.500000000, A.D. 2023-Aug-19 00:00:00.0000, -7.012025515273155E+07, -3.281766649023983E+08, -1.628004127684309E+07,
2460182.500000000, A.D. 2023-Aug-26 00:00:00.0000, -5.746334963664936E+07, -3.297104078576388E+08, -1.786427294882344E+07,
2460189.500000000, A.D. 2023-Sep-02 00:00:00.0000, -4.473243286505602E+07, -3.308190803636560E+08, -1.942546836597785E+07,
2460196.500000000, A.D. 2023-Sep-09 00:00:00.0000, -3.194352285468875E+07, -3.314983337403135E+08, -2.096144324178292E+07,
2460203.500000000, A.D. 2023-Sep-16 00:00:00.0000, -1.911295810222034E+07, -3.317445719828033E+08, -2.247003204638474E+07,
2460210.500000000, A.D. 2023-Sep-23 00:00:00.0000, -6.257353049601716E+06, -3.315549792886125E+08, -2.394909521502879E+07,
2460217.500000000, A.D. 2023-Sep-30 00:00:00.0000, 6.606449432854013E+06, -3.309275430198202E+08, -2.539652634815189E+07,
2460224.500000000, A.D. 2023-Oct-07 00:00:00.0000, 1.946142590563224E+07, -3.298610723318362E+08, -2.681025917503072E+07,
2460231.500000000, A.D. 2023-Oct-14 00:00:00.0000, 3.229042127672936E+07, -3.283552154995143E+08, -2.818827458820873E+07,
2460238.500000000, A.D. 2023-Oct-21 00:00:00.0000, 4.507620164422278E+07, -3.264104740955561E+08, -2.952860785369317E+07,
2460245.500000000, A.D. 2023-Oct-28 00:00:00.0000, 5.780150924664535E+07, -3.240282115620149E+08, -3.082935562075594E+07,
2460252.500000000, A.D. 2023-Nov-04 00:00:00.0000, 7.044911785026029E+07, -3.212106567905708E+08, -3.208868261898322E+07,
2460259.500000000, A.D. 2023-Nov-11 00:00:00.0000, 8.300188830972070E+07, -3.179609032056556E+08, -3.330482804852286E+07,
2460266.500000000, A.D. 2023-Nov-18 00:00:00.0000, 9.544282406651048E+07, -3.142829033613880E+08, -3.447611163185227E+07,
2460273.500000000, A.D. 2023-Nov-25 00:00:00.0000, 1.077551261957283E+08, -3.101814590296957E+08, -3.560093927801228E+07,
2460280.500000000, A.D. 2023-Dec-02 00:00:00.0000, 1.199222475687040E+08, -3.056622068441306E+08, -3.667780831306794E+07,
2460287.500000000, A.D. 2023-Dec-09 00:00:00.0000, 1.319279457593020E+08, -3.007315996668694E+08, -3.770531224436061E+07,
2460294.500000000, A.D. 2023-Dec-16 00:00:00.0000, 1.437563345481805E+08, -2.953968838314968E+08, -3.868214504574536E+07,
2460301.500000000, A.D. 2023-Dec-23 00:00:00.0000, 1.553919339611501E+08, -2.896660717916584E+08, -3.960710490796278E+07,
2460308.500000000, A.D. 2023-Dec-30 00:00:00.0000, 1.668197171161124E+08, -2.835479093886763E+08, -4.047909722044158E+07,
2460315.500000000, A.D. 2024-Jan-06 00:00:00.0000, 1.780251517548281E+08, -2.770518403985275E+08, -4.129713679660359E+07,
2460322.500000000, A.D. 2024-Jan-13 00:00:00.0000, 1.889942393229328E+08, -2.701879704986452E+08, -4.206034977041334E+07,
2460329.500000000, A.D. 2024-Jan-20 00:00:00.0000, 1.997135525591578E+08, -2.629670279370401E+08, -4.276797502132356E+07,
2460336.500000000, A.D. 2024-Jan-27 00:00:00.0000, 2.101702693490582E+08, -2.554003206443335E+08, -4.341936489263488E+07,
2460343.500000000, A.D. 2024-Feb-03 00:00:00.0000, 2.203522022469677E+08, -2.474996911456219E+08, -4.401398525264941E+07,
2460350.500000000, A.D. 2024-Feb-10 00:00:00.0000, 2.302478238257100E+08, -2.392774699803402E+08, -4.455141496545400E+07,
2460357.500000000, A.D. 2024-Feb-17 00:00:00.0000, 2.398462879252017E+08, -2.307464280420724E+08, -4.503134480705714E+07,
2460364.500000000, A.D. 2024-Feb-24 00:00:00.0000, 2.491374468169161E+08, -2.219197282400019E+08, -4.545357585804480E+07,
2460371.500000000, A.D. 2024-Mar-02 00:00:00.0000, 2.581118643400917E+08, -2.128108769207411E+08, -4.581801741173010E+07,
2460378.500000000, A.D. 2024-Mar-09 00:00:00.0000, 2.667608252181982E+08, -2.034336755022187E+08, -4.612468445298237E+07,
2460385.500000000, A.D. 2024-Mar-16 00:00:00.0000, 2.750763410636474E+08, -1.938021724905561E+08, -4.637369476855456E+07,
2460392.500000000, A.D. 2024-Mar-23 00:00:00.0000, 2.830511531180248E+08, -1.839306151195211E+08, -4.656526563232338E+07,
2460399.500000000, A.D. 2024-Mar-30 00:00:00.0000, 2.906787296631519E+08, -1.738334009627742E+08, -4.669970990634503E+07,
2460406.500000000, A.D. 2024-Apr-06 00:00:00.0000, 2.979532585533504E+08, -1.635250331715792E+08, -4.677743189930040E+07,
2460413.500000000, A.D. 2024-Apr-13 00:00:00.0000, 3.048696386378038E+08, -1.530200787445970E+08, -4.679892328200165E+07,
2460420.500000000, A.D. 2024-Apr-20 00:00:00.0000, 3.114234693661951E+08, -1.423331273625245E+08, -4.676475879767182E+07,
2460427.500000000, A.D. 2024-Apr-27 00:00:00.0000, 3.176110373256462E+08, -1.314787515304047E+08, -4.667559171878412E+07,
2460434.500000000, A.D. 2024-May-04 00:00:00.0000, 3.234293000702446E+08, -1.204714688845275E+08, -4.653214916030408E+07,
2460441.500000000, A.D. 2024-May-11 00:00:00.0000, 3.288758677543895E+08, -1.093257068887957E+08, -4.633522732100277E+07,
2460448.500000000, A.D. 2024-May-18 00:00:00.0000, 3.339489829200194E+08, -9.805576998896109E+07, -4.608568669635387E+07,
2460455.500000000, A.D. 2024-May-25 00:00:00.0000, 3.386474987244924E+08, -8.667580928923854E+07, -4.578444730008119E+07,
2460462.500000000, A.D. 2024-Jun-01 00:00:00.0000, 3.429708559234396E+08, -7.519979483670837E+07, -4.543248393562709E+07,
2460469.500000000, A.D. 2024-Jun-08 00:00:00.0000, 3.469190590981315E+08, -6.364149053792754E+07, -4.503082156988206E+07,
2460476.500000000, A.D. 2024-Jun-15 00:00:00.0000, 3.504926527575240E+08, -5.201443113787884E+07, -4.458053082578014E+07,
2460483.500000000, A.D. 2024-Jun-22 00:00:00.0000, 3.536926965334713E+08, -4.033190003959017E+07, -4.408272342778113E+07,
2460490.500000000, A.D. 2024-Jun-29 00:00:00.0000, 3.565207375609316E+08, -2.860690972702226E+07, -4.353854757486564E+07,
2460497.500000000, A.D. 2024-Jul-06 00:00:00.0000, 3.589787828780786E+08, -1.685218719083201E+07, -4.294918370223196E+07,
2460504.500000000, A.D. 2024-Jul-13 00:00:00.0000, 3.610692739656847E+08, -5.080161444051296E+06, -4.231584059265611E+07,
2460511.500000000, A.D. 2024-Jul-20 00:00:00.0000, 3.627950615977271E+08, 6.697048120840497E+06, -4.163975157230509E+07,
2460518.500000000, A.D. 2024-Jul-27 00:00:00.0000, 3.641593804897167E+08, 1.846764168039155E+07, -4.092217081790739E+07,
2460525.500000000, A.D. 2024-Aug-03 00:00:00.0000, 3.651658241431877E+08, 3.022014697127388E+07, -4.016436983730149E+07,
2460532.500000000, A.D. 2024-Aug-10 00:00:00.0000, 3.658183201613348E+08, 4.194342543586856E+07, -3.936763414314473E+07,
2460539.500000000, A.D. 2024-Aug-17 00:00:00.0000, 3.661211061771330E+08, 5.362667666301342E+07, -3.853326012466741E+07,
2460546.500000000, A.D. 2024-Aug-24 00:00:00.0000, 3.660787065017279E+08, 6.525944122157985E+07, -3.766255212252794E+07,
2460553.500000000, A.D. 2024-Aug-31 00:00:00.0000, 3.656959096757036E+08, 7.683160194434713E+07, -3.675681972168386E+07,
2460560.500000000, A.D. 2024-Sep-07 00:00:00.0000, 3.649777473422431E+08, 8.833338390423425E+07, -3.581737528341061E+07,
2460567.500000000, A.D. 2024-Sep-14 00:00:00.0000, 3.639294745654806E+08, 9.975535419176133E+07, -3.484553163909639E+07,
2460574.500000000, A.D. 2024-Sep-21 00:00:00.0000, 3.625565495943040E+08, 1.110884220201587E+08, -3.384259972104005E+07,
2460581.500000000, A.D. 2024-Sep-28 00:00:00.0000, 3.608646126114140E+08, 1.223238360384165E+08, -3.280988634458055E+07,
2460588.500000000, A.D. 2024-Oct-05 00:00:00.0000, 3.588594671511328E+08, 1.334531789511615E+08, -3.174869247224260E+07,
2460595.500000000, A.D. 2024-Oct-12 00:00:00.0000, 3.565470638250425E+08, 1.444683625195962E+08, -3.066031167590695E+07,
2460602.500000000, A.D. 2024-Oct-19 00:00:00.0000, 3.539334845991886E+08, 1.553616227641793E+08, -2.954602865087909E+07,
2460609.500000000, A.D. 2024-Oct-26 00:00:00.0000, 3.510249275806413E+08, 1.661255146542051E+08, -2.840711783680422E+07,
2460616.500000000, A.D. 2024-Nov-02 00:00:00.0000, 3.478276925563180E+08, 1.767529062175958E+08, -2.724484217369950E+07,
2460623.500000000, A.D. 2024-Nov-09 00:00:00.0000, 3.443481673629498E+08, 1.872369721684518E+08, -2.606045199300501E+07,
2460630.500000000, A.D. 2024-Nov-16 00:00:00.0000, 3.405928150941210E+08, 1.975711871240896E+08, -2.485518403889361E+07,
2460637.500000000, A.D. 2024-Nov-23 00:00:00.0000, 3.365681621695172E+08, 2.077493184273182E+08, -2.363026062113608E+07,
2460644.500000000, A.D. 2024-Nov-30 00:00:00.0000, 3.322807874514191E+08, 2.177654185908442E+08, -2.238688891501787E+07,
2460651.500000000, A.D. 2024-Dec-07 00:00:00.0000, 3.277373128028030E+08, 2.276138178365742E+08, -2.112626040533154E+07,
2460658.500000000, A.D. 2024-Dec-14 00:00:00.0000, 3.229443943679730E+08, 2.372891179977826E+08, -1.984955030386487E+07,
2460665.500000000, A.D. 2024-Dec-21 00:00:00.0000, 3.179087122225077E+08, 2.467861865854291E+08, -1.855791682132496E+07,
2460672.500000000, A.D. 2024-Dec-28 00:00:00.0000, 3.126369603347510E+08, 2.561001480913112E+08, -1.725250071019088E+07,
2460679.500000000, A.D. 2025-Jan-04 00:00:00.0000, 3.071358394030101E+08, 2.652263749354419E+08, -1.593442511608338E+07,
2460686.500000000, A.D. 2025-Jan-11 00:00:00.0000, 3.014120507089785E+08, 2.741604797471477E+08, -1.460479542829528E+07,
2460693.500000000, A.D. 2025-Jan-18 00:00:00.0000, 2.954722900357419E+08, 2.828983080921887E+08, -1.326469911427625E+07,
2460700.500000000, A.D. 2025-Jan-25 00:00:00.0000, 2.893232418640748E+08, 2.914359311999151E+08, -1.191520559360173E+07,
2460707.500000000, A.D. 2025-Feb-01 00:00:00.0000, 2.829715740091196E+08, 2.997696386838911E+08, -1.055736616603129E+07,
2460714.500000000, A.D. 2025-Feb-08 00:00:00.0000, 2.764239327285249E+08, 3.078959312941821E+08, -9.192213992384270E+06,
2460721.500000000, A.D. 2025-Feb-15 00:00:00.0000, 2.696869383027346E+08, 3.158115136960924E+08, -7.820764127701655E+06,
$$EOE